NORAD_CAT_ID,OBJECT_NAME,OBJECT_TYPE,EPOCH,MEAN_MOTION,ECCENTRICITY,INCLINATION,RA_OF_ASC_NODE,ARG_OF_PERICENTER,MEAN_ANOMALY,BSTAR,MEAN_MOTION_DOT,MEAN_MOTION_DDOT,TLE_LINE0,TLE_LINE1,TLE_LINE2,SEMIMAJOR_AXIS,PERIOD,APOGEE,PERIGEE,DECAYED
53978.0,STARLINK-5148,PAYLOAD,2023-12-18 21:58:58,15.08832742,0.0001559,53.2171,263.2048,112.7877,247.328,-5.4655e-05,-1.158e-05,0.0,0 STARLINK-5148,1 53978U 22125Q   23352.91595564 -.00001158  00000-0 -54655-4 0  9999,2 53978  53.2171 263.2048 0001559 112.7877 247.3280 15.08832742 66841,6917.903,95.438,540.846,538.689,0.0
53978.0,STARLINK-5148,PAYLOAD,2023-12-19 01:09:44,15.08833073,0.0001663,53.2168,262.6083,116.3139,243.8024,-5.4342e-05,-1.153e-05,0.0,0 STARLINK-5148,1 53978U 22125Q   23353.04843547 -.00001153  00000-0 -54342-4 0  9999,2 53978  53.2168 262.6083 0001663 116.3139 243.8024 15.08833073 66931,6917.902,95.438,540.917,538.616,0.0
53978.0,STARLINK-5148,PAYLOAD,2023-12-19 23:25:08,15.08846958,0.0001267,53.217,258.448,88.9662,271.1476,0.00012704,1.735e-05,0.0,0 STARLINK-5148,1 53978U 22125Q   23353.97579225  .00001735  00000-0  12704-3 0  9999,2 53978  53.2170 258.4480 0001267  88.9662 271.1476 15.08846958 67070,6917.859,95.437,540.601,538.848,0.0
53978.0,STARLINK-5148,PAYLOAD,2023-12-20 21:40:32,15.08843513,0.0001211,53.2173,254.2853,105.678,254.4345,0.00021947,3.207e-05,0.0,0 STARLINK-5148,1 53978U 22125Q   23354.90315609  .00003207  00000-0  21947-3 0  9992,2 53978  53.2173 254.2853 0001211 105.6780 254.4345 15.08843513 67149,6917.87,95.437,540.572,538.897,0.0
53978.0,STARLINK-5148,PAYLOAD,2023-12-21 00:51:18,15.088507,0.0001298,53.2165,253.6907,86.239,273.8751,0.00031545,4.737e-05,0.0,0 STARLINK-5148,1 53978U 22125Q   23355.03563405  .00004737  00000-0  31545-3 0  9990,2 53978  53.2165 253.6907 0001298  86.2390 273.8751 15.08850700 67231,6917.848,95.437,540.611,538.815,0.0
53978.0,STARLINK-5148,PAYLOAD,2023-12-21 21:31:20,15.08835987,0.0001442,53.2177,249.8231,61.4457,298.668,-2.052e-05,-6.14e-06,0.0,0 STARLINK-5148,1 53978U 22125Q   23355.89676226 -.00000614  00000-0 -20520-4 0  9994,2 53978  53.2177 249.8231 0001442  61.4457 298.6680 15.08835987 67293,6917.893,95.438,540.755,538.76,0.0
53978.0,STARLINK-5148,PAYLOAD,2023-12-22 00:42:06,15.08841921,0.00016,53.2169,249.2271,66.0315,294.0845,-5.5235e-05,-1.167e-05,0.0,0 STARLINK-5148,1 53978U 22125Q   23356.02923976 -.00001167  00000-0 -55235-4 0  9992,2 53978  53.2169 249.2271 0001600  66.0315 294.0845 15.08841921 67380,6917.875,95.437,540.846,538.633,0.0
53978.0,STARLINK-5148,PAYLOAD,2023-12-22 21:22:07,15.08844736,0.0001526,53.2159,245.3642,100.5401,259.5763,7.1383e-05,8.48e-06,0.0,0 STARLINK-5148,1 53978U 22125Q   23356.89035950  .00000848  00000-0  71383-4 0  9998,2 53978  53.2159 245.3642 0001526 100.5401 259.5763 15.08844736 67444,6917.866,95.437,540.787,538.675,0.0
53978.0,STARLINK-5148,PAYLOAD,2023-12-23 00:32:53,15.08847929,0.000183,53.2165,244.768,71.9413,288.1779,0.00028043,4.179e-05,0.0,0 STARLINK-5148,1 53978U 22125Q   23357.02284077  .00004179  00000-0  28043-3 0  9995,2 53978  53.2165 244.7680 0001830  71.9413 288.1779 15.08847929 67462,6917.856,95.437,540.987,538.455,0.0
53978.0,STARLINK-5148,PAYLOAD,2023-12-23 21:12:54,15.08841154,0.0001849,53.2162,240.9018,78.2658,281.8542,0.00017013,2.421e-05,0.0,0 STARLINK-5148,1 53978U 22125Q   23357.88396487  .00002421  00000-0  17013-3 0  9991,2 53978  53.2162 240.9018 0001849  78.2658 281.8542 15.08841154 67599,6917.877,95.437,541.021,538.463,0.0
53978.0,STARLINK-5148,PAYLOAD,2023-12-23 22:48:17,15.08841609,0.0001696,53.2179,240.6038,103.5281,256.59,0.0001925,2.777e-05,0.0,0 STARLINK-5148,1 53978U 22125Q   23357.95020366  .00002777  00000-0  19250-3 0  9998,2 53978  53.2179 240.6038 0001696 103.5281 256.5900 15.08841609 67671,6917.875,95.437,540.914,538.567,0.0
53978.0,STARLINK-5148,PAYLOAD,2023-12-24 22:39:04,15.08849824,0.0001636,53.2156,236.1475,84.9309,275.187,0.00017645,2.522e-05,0.0,0 STARLINK-5148,1 53978U 22125Q   23358.94380002  .00002522  00000-0  17645-3 0  9998,2 53978  53.2156 236.1475 0001636  84.9309 275.1870 15.08849824 67757,6917.85,95.437,540.847,538.584,0.0
53978.0,STARLINK-5148,PAYLOAD,2023-12-25 01:49:50,15.08854927,0.0001467,53.2152,235.5482,92.9438,267.1722,0.00029519,4.415e-05,0.0,0 STARLINK-5148,1 53978U 22125Q   23359.07627477  .00004415  00000-0  29519-3 0  9999,2 53978  53.2152 235.5482 0001467  92.9438 267.1722 15.08854927 67845,6917.835,95.437,540.715,538.685,0.0
53978.0,STARLINK-5148,PAYLOAD,2023-12-25 19:19:05,15.08843568,0.0001587,53.2157,232.2694,96.9848,263.1324,5.4993e-05,5.87e-06,0.0,0 STARLINK-5148,1 53978U 22125Q   23359.80492022  .00000587  00000-0  54993-4 0  9997,2 53978  53.2157 232.2694 0001587  96.9848 263.1324 15.08843568 67956,6917.869,95.437,540.832,538.637,0.0
53978.0,STARLINK-5148,PAYLOAD,2023-12-25 22:29:51,15.08840894,0.0001508,53.2145,231.6854,86.0852,274.0313,8.3085e-05,1.035e-05,0.0,0 STARLINK-5148,1 53978U 22125Q   23359.93740309  .00001035  00000-0  83085-4 0  9998,2 53978  53.2145 231.6854 0001508  86.0852 274.0313 15.08840894 67905,6917.878,95.437,540.786,538.699,0.0
53978.0,STARLINK-5148,PAYLOAD,2023-12-26 19:09:52,15.08839066,0.0001506,53.2148,227.8172,99.2505,260.8658,3.8205e-05,3.2e-06,0.0,0 STARLINK-5148,1 53978U 22125Q   23360.79852442  .00000320  00000-0  38205-4 0  9996,2 53978  53.2148 227.8172 0001506  99.2505 260.8658 15.08839066 68104,6917.883,95.438,540.79,538.706,0.0
53978.0,STARLINK-5148,PAYLOAD,2023-12-26 22:20:38,15.08840199,0.0001503,53.2147,227.2227,97.9505,262.1658,7.0914e-05,8.41e-06,0.0,0 STARLINK-5148,1 53978U 22125Q   23360.93100412  .00000841  00000-0  70914-4 0  9996,2 53978  53.2147 227.2227 0001503  97.9505 262.1658 15.08840199 68058,6917.88,95.438,540.785,538.705,0.0
53978.0,STARLINK-5148,PAYLOAD,2023-12-27 01:31:25,15.0884072,0.0001521,53.2152,226.6268,100.8836,259.2327,9.9581e-05,1.297e-05,0.0,0 STARLINK-5148,1 53978U 22125Q   23361.06348403  .00001297  00000-0  99581-4 0  9992,2 53978  53.2152 226.6268 0001521 100.8836 259.2327 15.08840720 68075,6917.878,95.438,540.795,538.691,0.0
53978.0,STARLINK-5148,PAYLOAD,2023-12-27 20:36:02,15.08838968,0.0001524,53.2149,223.0583,104.5154,255.6007,0.00011758,1.584e-05,0.0,0 STARLINK-5148,1 53978U 22125Q   23361.85836583  .00001584  00000-0  11758-3 0  9998,2 53978  53.2149 223.0583 0001524 104.5154 255.6007 15.08838968 68198,6917.884,95.438,540.803,538.694,0.0
53978.0,STARLINK-5148,PAYLOAD,2023-12-28 14:05:17,15.0883901,0.0001493,53.2147,219.7873,104.7969,255.3189,8.0203e-05,9.89e-06,0.0,0 STARLINK-5148,1 53978U 22125Q   23362.58700700  .00000989  00000-0  80203-4 0  9990,2 53978  53.2147 219.7873 0001493 104.7969 255.3189 15.08839010 68301,6917.883,95.438,540.781,538.716,0.0
53978.0,STARLINK-5148,PAYLOAD,2023-12-28 20:26:49,15.08839355,0.0001482,53.2148,218.5978,104.222,255.8937,6.4109e-05,7.32e-06,0.0,0 STARLINK-5148,1 53978U 22125Q   23362.85196639  .00000732  00000-0  64109-4 0  9993,2 53978  53.2148 218.5978 0001482 104.2220 255.8937 15.08839355 68340,6917.882,95.438,540.773,538.722,0.0
53978.0,STARLINK-5148,PAYLOAD,2023-12-29 18:42:13,15.08842576,0.000135,53.2142,214.4355,99.6922,260.4223,0.000119,1.607e-05,0.0,0 STARLINK-5148,1 53978U 22125Q   23363.77932534  .00001607  00000-0  11900-3 0  9999,2 53978  53.2142 214.4355 0001350  99.6922 260.4223 15.08842576 68550,6917.873,95.437,540.671,538.804,0.0
53978.0,STARLINK-5148,PAYLOAD,2023-12-29 21:52:59,15.08845621,0.0001351,53.2143,213.8412,90.7393,269.3753,0.00015707,2.213e-05,0.0,0 STARLINK-5148,1 53978U 22125Q   23363.91180411  .00002213  00000-0  15707-3 0  9997,2 53978  53.2143 213.8412 0001351  90.7393 269.3753 15.08845621 68508,6917.863,95.437,540.663,538.794,0.0
53978.0,STARLINK-5148,PAYLOAD,2023-12-30 13:46:51,15.08841641,0.0001407,53.2142,210.8683,81.9092,278.206,0.00010718,1.418e-05,0.0,0 STARLINK-5148,1 53978U 22125Q   23364.57420652  .00001418  00000-0  10718-3 0  9997,2 53978  53.2142 210.8683 0001407  81.9092 278.2060 15.08841641 68603,6917.875,95.437,540.714,538.767,0.0
53978.0,STARLINK-5148,PAYLOAD,2023-12-30 20:08:24,15.08842255,0.0001392,53.2154,209.6783,83.4469,276.6682,0.00010418,1.371e-05,0.0,0 STARLINK-5148,1 53978U 22125Q   23364.83916732  .00001371  00000-0  10418-3 0  9990,2 53978  53.2154 209.6783 0001392  83.4469 276.6682 15.08842255 68717,6917.873,95.437,540.701,538.776,0.0
53978.0,STARLINK-5148,PAYLOAD,2023-12-31 19:59:10,15.08843564,0.0001374,53.2152,205.2176,84.6493,275.4655,3.6141e-05,2.87e-06,0.0,0 STARLINK-5148,1 53978U 22125Q   23365.83276559  .00000287  00000-0  36141-4 0  9994,2 53978  53.2152 205.2176 0001374  84.6493 275.4655 15.08843564 68792,6917.869,95.437,540.685,538.784,0.0
53978.0,STARLINK-5148,PAYLOAD,2024-01-01 13:28:25,15.0884056,0.0001349,53.215,201.9459,91.3594,268.7553,6.048e-05,6.75e-06,0.0,0 STARLINK-5148,1 53978U 22125Q   24001.56140520  .00000675  00000-0  60480-4 0  9994,2 53978  53.2150 201.9459 0001349  91.3594 268.7553 15.08840560 68904,6917.879,95.438,540.677,538.81,0.0
53978.0,STARLINK-5148,PAYLOAD,2024-01-01 19:49:57,15.0884201,0.0001377,53.2151,200.7565,87.4773,272.6377,6.3923e-05,7.3e-06,0.0,0 STARLINK-5148,1 53978U 22125Q   24001.82636404  .00000730  00000-0  63923-4 0  9991,2 53978  53.2151 200.7565 0001377  87.4773 272.6377 15.08842010 69019,6917.874,95.437,540.692,538.787,0.0
53978.0,STARLINK-5148,PAYLOAD,2024-01-02 18:05:22,15.08837994,0.0001349,53.2153,196.5928,89.8477,270.267,2.5299e-05,1.15e-06,0.0,0 STARLINK-5148,1 53978U 22125Q   24002.75372782  .00000115  00000-0  25299-4 0  9991,2 53978  53.2153 196.5928 0001349  89.8477 270.2670 15.08837994 69152,6917.887,95.438,540.685,538.818,0.0
53978.0,STARLINK-5148,PAYLOAD,2024-01-03 17:56:09,15.08839247,0.0001333,53.2154,192.1316,95.1974,264.917,2.2389e-05,6.8e-07,0.0,0 STARLINK-5148,1 53978U 22125Q   24003.74732733  .00000068  00000-0  22389-4 0  9991,2 53978  53.2154 192.1316 0001333  95.1974 264.9170 15.08839247 69238,6917.883,95.438,540.67,538.826,0.0
